NORAD_CAT_ID,OBJECT_NAME,OBJECT_TYPE,EPOCH,MEAN_MOTION,ECCENTRICITY,INCLINATION,RA_OF_ASC_NODE,ARG_OF_PERICENTER,MEAN_ANOMALY,BSTAR,MEAN_MOTION_DOT,MEAN_MOTION_DDOT,TLE_LINE0,TLE_LINE1,TLE_LINE2,SEMIMAJOR_AXIS,PERIOD,APOGEE,PERIGEE,DECAYED
53727.0,STARLINK-4701,PAYLOAD,2023-05-10 11:35:44,15.08837315,8.25e-05,53.2167,216.853,121.2967,238.8106,1.9802e-05,2.7e-07,0.0,0 STARLINK-4701,1 53727U 22107AD  23130.48315182  .00000027  00000-0  19802-4 0  9990,2 53727  53.2167 216.8530 0000825 121.2967 238.8106 15.08837315 38424,6917.889,95.438,540.324,539.183,0.0
53727.0,STARLINK-4701,PAYLOAD,2023-05-10 13:11:07,15.08842339,7.37e-05,53.2168,216.5537,109.5301,250.5771,6.4981e-06,-1.84e-06,0.0,0 STARLINK-4701,1 53727U 22107AD  23130.54938865 -.00000184  00000-0  64981-5 0  9990,2 53727  53.2168 216.5537 0000737 109.5301 250.5771 15.08842339 38434,6917.873,95.437,540.248,539.228,0.0
53727.0,STARLINK-4701,PAYLOAD,2023-05-11 11:26:30,15.08838001,7.54e-05,53.2166,212.3892,101.1796,258.9281,0.00021555,3.144e-05,0.0,0 STARLINK-4701,1 53727U 22107AD  23131.47674536  .00003144  00000-0  21555-3 0  9991,2 53727  53.2166 212.3892 0000754 101.1796 258.9281 15.08838001 38579,6917.886,95.438,540.273,539.23,0.0
53727.0,STARLINK-4701,PAYLOAD,2023-05-12 00:09:36,15.08831498,3.23e-05,53.2142,210.0046,88.6682,271.4347,0.00018289,2.624e-05,0.0,0 STARLINK-4701,1 53727U 22107AD  23132.00666792  .00002624  00000-0  18289-3 0  9998,2 53727  53.2142 210.0046 0000323  88.6682 271.4347 15.08831498 38053,6917.906,95.438,539.995,539.548,0.0
53727.0,STARLINK-4701,PAYLOAD,2023-05-13 04:46:32,15.08841466,5.92e-05,53.2135,204.6513,88.7877,271.3183,2.0744e-05,4.3e-07,0.0,0 STARLINK-4701,1 53727U 22107AD  23133.19898787  .00000043  00000-0  20744-4 0  9993,2 53727  53.2135 204.6513 0000592  88.7877 271.3183 15.08841466 38231,6917.876,95.437,540.15,539.331,0.0
53727.0,STARLINK-4701,PAYLOAD,2023-05-13 11:08:04,15.08849136,7.39e-05,53.215,203.4657,65.882,294.225,9.2011e-05,1.177e-05,0.0,0 STARLINK-4701,1 53727U 22107AD  23133.46394114  .00001177  00000-0  92011-4 0  9993,2 53727  53.2150 203.4657 0000739  65.8820 294.2250 15.08849136 38276,6917.852,95.437,540.229,539.206,0.0
53727.0,STARLINK-4701,PAYLOAD,2023-05-14 12:34:15,15.08834809,7.26e-05,53.2159,198.7078,72.8425,287.2647,4.8435e-06,-2.11e-06,0.0,0 STARLINK-4701,1 53727U 22107AD  23134.52379484 -.00000211  00000-0  48435-5 0  9995,2 53727  53.2159 198.7078 0000726  72.8425 287.2647 15.08834809 38434,6917.896,95.438,540.263,539.259,0.0
53727.0,STARLINK-4701,PAYLOAD,2023-05-15 10:49:39,15.08843706,8.78e-05,53.2156,194.5463,75.7445,284.3645,2.8053e-05,1.59e-06,0.0,0 STARLINK-4701,1 53727U 22107AD  23135.45114982  .00000159  00000-0  28053-4 0  9991,2 53727  53.2156 194.5463 0000878  75.7445 284.3645 15.08843706 38572,6917.869,95.437,540.341,539.127,0.0
53727.0,STARLINK-4701,PAYLOAD,2023-05-15 20:21:58,15.08841898,8.06e-05,53.2153,192.7616,71.7068,288.4012,-3.3775e-05,-8.25e-06,0.0,0 STARLINK-4701,1 53727U 22107AD  23135.84859224 -.00000825  00000-0 -33775-4 0  9998,2 53727  53.2153 192.7616 0000806  71.7068 288.4012 15.08841898 39234,6917.875,95.437,540.297,539.182,0.0
53727.0,STARLINK-4701,PAYLOAD,2023-05-15 23:32:44,15.08832854,8.64e-05,53.2152,192.1673,72.6451,287.4635,7.7215e-05,9.41e-06,0.0,0 STARLINK-4701,1 53727U 22107AD  23135.98107587  .00000941  00000-0  77215-4 0  9995,2 53727  53.2152 192.1673 0000864  72.6451 287.4635 15.08832854 38657,6917.902,95.438,540.365,539.17,0.0
53727.0,STARLINK-4701,PAYLOAD,2023-05-16 13:51:13,15.08837203,9.05e-05,53.2149,189.4904,70.5381,289.5708,0.00010149,1.328e-05,0.0,0 STARLINK-4701,1 53727U 22107AD  23136.57723473  .00001328  00000-0  10149-3 0  9991,2 53727  53.2149 189.4904 0000905  70.5381 289.5708 15.08837203 39348,6917.889,95.438,540.38,539.128,0.0
53727.0,STARLINK-4701,PAYLOAD,2023-05-16 20:12:45,15.08834214,9.39e-05,53.2146,188.3003,68.4194,291.6898,6.0191e-05,6.7e-06,0.0,0 STARLINK-4701,1 53727U 22107AD  23136.84219858  .00000670  00000-0  60191-4 0  9990,2 53727  53.2146 188.3003 0000939  68.4194 291.6898 15.08834214 39385,6917.898,95.438,540.413,539.113,0.0
53727.0,STARLINK-4701,PAYLOAD,2023-05-17 08:55:49,15.08852792,8.14e-05,53.2145,185.9188,66.2904,293.8173,0.000181,2.595e-05,0.0,0 STARLINK-4701,1 53727U 22107AD  23137.37210091  .00002595  00000-0  18100-3 0  9999,2 53727  53.2145 185.9188 0000814  66.2904 293.8173 15.08852792 38861,6917.841,95.437,540.269,539.143,0.0
53727.0,STARLINK-4701,PAYLOAD,2023-05-17 20:03:32,15.08840083,9.74e-05,53.2146,183.8364,64.3603,295.749,2.6814e-05,1.39e-06,0.0,0 STARLINK-4701,1 53727U 22107AD  23137.83579118  .00000139  00000-0  26814-4 0  9992,2 53727  53.2146 183.8364 0000974  64.3603 295.7490 15.08840083 39535,6917.88,95.438,540.419,539.071,0.0
53727.0,STARLINK-4701,PAYLOAD,2023-05-18 02:25:05,15.0883419,0.0001423,53.2142,182.6482,73.6025,286.5123,5.3492e-05,5.63e-06,0.0,0 STARLINK-4701,1 53727U 22107AD  23138.10075638  .00000563  00000-0  53492-4 0  9994,2 53727  53.2142 182.6482 0001423  73.6025 286.5123 15.08834190 38970,6917.898,95.438,540.748,538.779,0.0
53727.0,STARLINK-4701,PAYLOAD,2023-05-18 10:22:01,15.08830536,8.36e-05,53.2158,181.1642,78.7903,281.3183,-1.7335e-05,-5.63e-06,0.0,0 STARLINK-4701,1 53727U 22107AD  23138.43196079 -.00000563  00000-0 -17335-4 0  9991,2 53727  53.2158 181.1642 0000836  78.7903 281.3183 15.08830536 39629,6917.909,95.438,540.353,539.196,0.0
53727.0,STARLINK-4701,PAYLOAD,2023-05-18 19:54:20,15.0883287,0.0001134,53.2161,179.3793,77.5918,282.5201,2.299e-06,-2.51e-06,0.0,0 STARLINK-4701,1 53727U 22107AD  23138.82940103 -.00000251  00000-0  22990-5 0  9996,2 53727  53.2161 179.3793 0001134  77.5918 282.5201 15.08832870 39687,6917.902,95.438,540.552,538.983,0.0
53727.0,STARLINK-4701,PAYLOAD,2023-05-19 08:37:24,15.08845601,8.17e-05,53.2153,177.0001,74.6012,285.507,-6.6491e-05,-1.346e-05,0.0,0 STARLINK-4701,1 53727U 22107AD  23139.35931369 -.00001346  00000-0 -66491-4 0  9999,2 53727  53.2153 177.0001 0000817  74.6012 285.5070 15.08845601 39161,6917.863,95.437,540.293,539.163,0.0
53727.0,STARLINK-4701,PAYLOAD,2023-05-19 21:20:31,15.08757753,7.68e-05,53.2153,174.6219,133.6148,226.4908,0.001241,0.00019473,0.0,0 STARLINK-4701,1 53727U 22107AD  23139.88925814  .00019473  00000-0  12410-2 0  9993,2 53727  53.2153 174.6219 0000768 133.6148 226.4908 15.08757753 39845,6918.132,95.443,540.528,539.465,0.0
53727.0,STARLINK-4701,PAYLOAD,2023-05-20 19:35:53,15.08845579,7.49e-05,53.2148,170.458,79.0378,281.0698,0.00017779,2.543e-05,0.0,0 STARLINK-4701,1 53727U 22107AD  23140.81658828  .00002543  00000-0  17779-3 0  9990,2 53727  53.2148 170.4580 0000749  79.0378 281.0698 15.08845579 39983,6917.863,95.437,540.246,539.21,0.0
53727.0,STARLINK-4701,PAYLOAD,2023-05-21 08:18:58,15.08845613,8.47e-05,53.2152,168.0799,72.8157,287.2928,9.3861e-05,1.207e-05,0.0,0 STARLINK-4701,1 53727U 22107AD  23141.34650979  .00001207  00000-0  93861-4 0  9991,2 53727  53.2152 168.0799 0000847  72.8157 287.2928 15.08845613 40062,6917.863,95.437,540.314,539.142,0.0
53727.0,STARLINK-4701,PAYLOAD,2023-05-22 08:09:46,15.08839947,8.1e-05,53.2141,163.6172,86.8614,273.2471,-8.4685e-05,-1.635e-05,0.0,0 STARLINK-4701,1 53727U 22107AD  23142.34011693 -.00001635  00000-0 -84685-4 0  9997,2 53727  53.2141 163.6172 0000810  86.8614 273.2471 15.08839947 39619,6917.881,95.438,540.306,539.185,0.0
53727.0,STARLINK-4701,PAYLOAD,2023-05-22 11:20:32,15.08835128,7.75e-05,53.2152,163.0231,90.9845,269.1236,-5.8649e-05,-1.221e-05,0.0,0 STARLINK-4701,1 53727U 22107AD  23142.47259999 -.00001221  00000-0 -58649-4 0  9996,2 53727  53.2152 163.0231 0000775  90.9845 269.1236 15.08835128 40233,6917.895,95.438,540.296,539.224,0.0
53727.0,STARLINK-4701,PAYLOAD,2023-05-23 17:32:52,15.0883439,7.76e-05,53.2155,157.3744,88.2304,271.8777,6.6245e-05,7.67e-06,0.0,0 STARLINK-4701,1 53727U 22107AD  23143.73116017  .00000767  00000-0  66245-4 0  9992,2 53727  53.2155 157.3744 0000776  88.2304 271.8777 15.08834390 39825,6917.898,95.438,540.299,539.226,0.0
53727.0,STARLINK-4701,PAYLOAD,2023-05-24 06:15:57,15.08836677,7.37e-05,53.2153,154.9951,85.03,275.0776,0.00012121,1.642e-05,0.0,0 STARLINK-4701,1 53727U 22107AD  23144.26107926  .00001642  00000-0  12121-3 0  9996,2 53727  53.2153 154.9951 0000737  85.0300 275.0776 15.08836677 40506,6917.891,95.438,540.265,539.246,0.0
53727.0,STARLINK-4701,PAYLOAD,2023-05-26 04:22:08,15.0884186,7.7e-05,53.2152,146.3708,78.5074,281.6005,4.8148e-05,4.79e-06,0.0,0 STARLINK-4701,1 53727U 22107AD  23146.18204184  .00000479  00000-0  48148-4 0  9999,2 53727  53.2152 146.3708 0000770  78.5074 281.6005 15.08841860 40195,6917.875,95.437,540.272,539.207,0.0
53727.0,STARLINK-4701,PAYLOAD,2023-05-26 09:08:17,15.08841582,7.77e-05,53.2151,145.4785,79.7932,280.3147,6.9602e-05,8.2e-06,0.0,0 STARLINK-4701,1 53727U 22107AD  23146.38076112  .00000820  00000-0  69602-4 0  9997,2 53727  53.2151 145.4785 0000777  79.7932 280.3147 15.08841582 40826,6917.876,95.437,540.278,539.203,0.0
53727.0,STARLINK-4701,PAYLOAD,2023-05-27 04:12:55,15.08837329,7.57e-05,53.2151,141.9103,79.8252,280.2826,3.7918e-05,3.16e-06,0.0,0 STARLINK-4701,1 53727U 22107AD  23147.17564499  .00000316  00000-0  37918-4 0  9990,2 53727  53.2151 141.9103 0000757  79.8252 280.2826 15.08837329 40349,6917.889,95.438,540.277,539.23,0.0
53727.0,STARLINK-4701,PAYLOAD,2023-05-27 08:59:05,15.08838402,7.44e-05,53.2151,141.0181,84.0971,276.0106,4.4971e-05,4.28e-06,0.0,0 STARLINK-4701,1 53727U 22107AD  23147.37436410  .00000428  00000-0  44971-4 0  9994,2 53727  53.2151 141.0181 0000744  84.0971 276.0106 15.08838402 40974,6917.885,95.438,540.265,539.236,0.0
53727.0,STARLINK-4701,PAYLOAD,2023-05-28 05:39:05,15.08842653,7.52e-05,53.2151,137.1521,84.586,275.5218,3.7862e-05,3.15e-06,0.0,0 STARLINK-4701,1 53727U 22107AD  23148.23548154  .00000315  00000-0  37862-4 0  9995,2 53727  53.2151 137.1521 0000752  84.5860 275.5218 15.08842653 40509,6917.872,95.437,540.258,539.217,0.0
